GLOBALSTAR M035         
1 25851U 99037A   25143.62441235 -.00000095  00000+0 -11772-2 0  9996
2 25851  51.9925 109.7405 0014163 302.6392 227.9346 11.04538450 93545
GLOBALSTAR M032         
1 25852U 99037B   25143.41080702 -.00000064  00000+0  89821-4 0  9999
2 25852  51.9963 297.1260 0012821 124.8706 235.3301 11.19060475132014
GLOBALSTAR M051         
1 25853U 99037C   25143.90119947 -.00000073  00000+0 -25718-4 0  9994
2 25853  51.9779  99.4764 0000327 164.5633 195.5188 11.42204876129635
GLOBALSTAR M030         
1 25854U 99037D   25143.76785849 -.00000058  00000+0  35447-3 0  9990
2 25854  51.9881 267.4604 0002888  12.0571 348.0315 11.55110049147327
GLOBALSTAR M048         
1 25872U 99041A   25143.60022638 -.00000070  00000+0  67442-5 0  9994
2 25872  51.9397  34.2871 0013362 139.5798 248.3363 11.33856692122190
GLOBALSTAR M026         
1 25873U 99041B   25143.48234362  .00000013  00000+0  28407-2 0  9991
2 25873  51.9998 228.2814 0002345 218.4017 154.4411 11.06838385145757
GLOBALSTAR M043         
1 25874U 99041C   25143.42753897 -.00000041  00000+0  81304-3 0  9993
2 25874  51.9360 141.3556 0013669 270.3199 247.2227 11.25694502120085
GLOBALSTAR M028         
1 25875U 99041D   25143.61636313 -.00000109  00000+0 -57437-4 0  9995
2 25875  51.9626 266.3321 0063107  18.7420 341.5746 12.50582524187101
